{
    "links": {
        "self": "http://www.neowsapp.com/rest/v1/neo/3610023?api_key=iIulBulltgU6a56xZRHN4H3l9WmuAYTsLGpBGhQ2"
    },
    "id": "3610023",
    "neo_reference_id": "3610023",
    "name": "(2012 TX52)",
    "designation": "2012 TX52",
    "nasa_jpl_url": "http://ssd.jpl.nasa.gov/sbdb.cgi?sstr=3610023",
    "absolute_magnitude_h": 22.1,
    "estimated_diameter": {
        "kilometers": {
            "estimated_diameter_min": 0.1010543415,
            "estimated_diameter_max": 0.2259643771
        },
        "meters": {
            "estimated_diameter_min": 101.054341542,
            "estimated_diameter_max": 225.9643771094
        },
        "miles": {
            "estimated_diameter_min": 0.0627922373,
            "estimated_diameter_max": 0.140407711
        },
        "feet": {
            "estimated_diameter_min": 331.5431259047,
            "estimated_diameter_max": 741.3529669956
        }
    },
    "is_potentially_hazardous_asteroid": false,
    "close_approach_data": [
        {
            "close_approach_date": "2012-09-02",
            "close_approach_date_full": "2012-Sep-02 18:44",
            "epoch_date_close_approach": 1346611440000,
            "relative_velocity": {
                "kilometers_per_second": "1.7476175823",
                "kilometers_per_hour": "6291.4232963673",
                "miles_per_hour": "3909.2457699011"
            },
            "miss_distance": {
                "astronomical": "0.2915294019",
                "lunar": "113.4049373391",
                "kilometers": "43612177.566613953",
                "miles": "27099350.5263124314"
            },
            "orbiting_body": "Earth"
        }
    ],
    "orbital_data": {
        "orbit_id": "8",
        "orbit_determination_date": "2017-04-06 08:48:44",
        "first_observation_date": "2012-10-07",
        "last_observation_date": "2012-10-17",
        "data_arc_in_days": 10,
        "observations_used": 20,
        "orbit_uncertainty": "7",
        "minimum_orbit_intersection": ".282356",
        "jupiter_tisserand_invariant": "4.183",
        "epoch_osculation": "2459000.5",
        "eccentricity": ".245683197188362",
        "semi_major_axis": "1.687074464330833",
        "inclination": "5.772574170401906",
        "ascending_node_longitude": "217.3257937198512",
        "orbital_period": "800.3865920913958",
        "perihelion_distance": "1.272588616039191",
        "perihelion_argument": "111.5854204539469",
        "aphelion_distance": "2.101560312622476",
        "perihelion_time": "2459356.716125703982",
        "mean_anomaly": "199.780168083088",
        "mean_motion": ".449782646982287",
        "equinox": "J2000",
        "orbit_class": {
            "orbit_class_type": "AMO",
            "orbit_class_description": "Near-Earth asteroid orbits similar to that of 1221 Amor",
            "orbit_class_range": "1.017 AU < q (perihelion) < 1.3 AU"
        }
    },
    "is_sentry_object": false
}